NORAD_CAT_ID,OBJECT_NAME,OBJECT_TYPE,EPOCH,MEAN_MOTION,ECCENTRICITY,INCLINATION,RA_OF_ASC_NODE,ARG_OF_PERICENTER,MEAN_ANOMALY,BSTAR,MEAN_MOTION_DOT,MEAN_MOTION_DDOT,TLE_LINE0,TLE_LINE1,TLE_LINE2,SEMIMAJOR_AXIS,PERIOD,APOGEE,PERIGEE,DECAYED
52994.0,STARLINK-4256,PAYLOAD,2023-04-01 14:40:13,15.08836683,0.0001417,53.2149,231.3577,91.8487,268.2667,1.3948e-05,-6.6e-07,0.0,0 STARLINK-4256,1 52994U 22076J   23091.61127071 -.00000066  00000-0  13948-4 0  9998,2 52994  53.2149 231.3577 0001417  91.8487 268.2667 15.08836683 41317,6917.891,95.438,540.736,538.775,0.0
52994.0,STARLINK-4256,PAYLOAD,2023-04-02 14:31:00,15.08852696,0.000133,53.2149,226.8976,80.6333,279.4809,0.00037587,5.701e-05,0.0,0 STARLINK-4256,1 52994U 22076J   23092.60486652  .00005701  00000-0  37587-3 0  9995,2 52994  53.2149 226.8976 0001330  80.6333 279.4809 15.08852696 41469,6917.842,95.437,540.627,538.787,0.0
52994.0,STARLINK-4256,PAYLOAD,2023-04-02 17:41:46,15.08863362,0.0001298,53.2151,226.3035,83.4367,276.6773,0.00074399,0.0001158,0.0,0 STARLINK-4256,1 52994U 22076J   23092.73734420  .00011580  00000-0  74399-3 0  9992,2 52994  53.2151 226.3035 0001298  83.4367 276.6773 15.08863362 41016,6917.809,95.436,540.572,538.776,0.0
52994.0,STARLINK-4256,PAYLOAD,2023-04-03 01:38:42,15.08843618,9.7e-05,53.2146,224.8167,95.7699,264.3404,2.9163e-05,1.76e-06,0.0,0 STARLINK-4256,1 52994U 22076J   23093.06854504  .00000176  00000-0  29163-4 0  9994,2 52994  53.2146 224.8167 0000970  95.7699 264.3404 15.08843618 41533,6917.869,95.437,540.405,539.063,0.0
52994.0,STARLINK-4256,PAYLOAD,2023-04-03 09:35:38,15.08844755,0.0001749,53.2146,223.3295,84.3023,275.8169,9.7366e-05,1.262e-05,0.0,0 STARLINK-4256,1 52994U 22076J   23093.39974748  .00001262  00000-0  97366-4 0  9990,2 52994  53.2146 223.3295 0001749  84.3023 275.8169 15.08844755 41111,6917.866,95.437,540.941,538.521,0.0
52994.0,STARLINK-4256,PAYLOAD,2023-04-03 17:32:33,15.08841561,0.000132,53.2146,221.8421,86.2919,273.8225,0.00028643,4.274e-05,0.0,0 STARLINK-4256,1 52994U 22076J   23093.73094816  .00004274  00000-0  28643-3 0  9994,2 52994  53.2146 221.8421 0001320  86.2919 273.8225 15.08841561 41163,6917.876,95.437,540.654,538.827,0.0
52994.0,STARLINK-4256,PAYLOAD,2023-04-04 01:29:29,15.0884112,0.0001106,53.2149,220.3557,94.2253,265.8865,0.00051258,7.879e-05,0.0,0 STARLINK-4256,1 52994U 22076J   23094.06214907  .00007879  00000-0  51258-3 0  9998,2 52994  53.2149 220.3557 0001106  94.2253 265.8865 15.08841120 41681,6917.877,95.437,540.507,538.977,0.0
52994.0,STARLINK-4256,PAYLOAD,2023-04-04 09:26:25,15.08843006,0.0001379,53.2153,218.869,92.5694,267.5456,0.00052193,8.029e-05,0.0,0 STARLINK-4256,1 52994U 22076J   23094.39335057  .00008029  00000-0  52193-3 0  9991,2 52994  53.2153 218.8690 0001379  92.5694 267.5456 15.08843006 41262,6917.871,95.437,540.69,538.782,0.0
52994.0,STARLINK-4256,PAYLOAD,2023-04-05 14:03:22,15.08837424,0.000107,53.213,213.5132,91.409,268.7024,0.00010079,1.317e-05,0.0,0 STARLINK-4256,1 52994U 22076J   23095.58567388  .00001317  00000-0  10079-3 0  9997,2 52994  53.2130 213.5132 0001070  91.4090 268.7024 15.08837424 41447,6917.888,95.438,540.493,539.013,0.0
52994.0,STARLINK-4256,PAYLOAD,2023-04-06 12:18:45,15.08853889,0.000158,53.2147,209.3526,71.7612,288.3552,-0.00019541,-3.398e-05,0.0,0 STARLINK-4256,1 52994U 22076J   23096.51302861 -.00003398  00000-0 -19541-3 0  9990,2 52994  53.2147 209.3526 0001580  71.7612 288.3552 15.08853889 42057,6917.838,95.437,540.796,538.61,0.0
52994.0,STARLINK-4256,PAYLOAD,2023-04-07 01:01:51,15.08845171,0.0001704,53.2151,206.9749,65.2858,294.8311,0.00025401,3.757e-05,0.0,0 STARLINK-4256,1 52994U 22076J   23097.04295481  .00003757  00000-0  25401-3 0  9997,2 52994  53.2151 206.9749 0001704  65.2858 294.8311 15.08845171 42139,6917.865,95.437,540.908,538.551,0.0
52994.0,STARLINK-4256,PAYLOAD,2023-04-07 12:09:33,15.08843114,0.0001678,53.2154,204.8928,69.4114,290.7058,0.00017343,2.473e-05,0.0,0 STARLINK-4256,1 52994U 22076J   23097.50663559  .00002473  00000-0  17343-3 0  9993,2 52994  53.2154 204.8928 0001678  69.4114 290.7058 15.08843114 41732,6917.871,95.437,540.897,538.575,0.0
52994.0,STARLINK-4256,PAYLOAD,2023-04-08 12:00:20,15.08840725,0.0001501,53.2154,200.4317,90.5082,269.6082,2.026e-05,3.4e-07,0.0,0 STARLINK-4256,1 52994U 22076J   23098.50023491  .00000034  00000-0  20260-4 0  9993,2 52994  53.2154 200.4317 0001501  90.5082 269.6082 15.08840725 42356,6917.878,95.438,540.782,538.705,0.0
52994.0,STARLINK-4256,PAYLOAD,2023-04-09 10:15:43,15.08842243,0.0001457,53.2155,196.2656,89.7768,270.3391,5.0452e-05,5.15e-06,0.0,0 STARLINK-4256,1 52994U 22076J   23099.42759246  .00000515  00000-0  50452-4 0  9999,2 52994  53.2155 196.2656 0001457  89.7768 270.3391 15.08842243 42029,6917.874,95.437,540.746,538.731,0.0
52994.0,STARLINK-4256,PAYLOAD,2023-04-09 15:01:53,15.08847939,0.0001484,53.2158,195.3728,93.7691,266.3471,9.9762e-05,1.3e-05,0.0,0 STARLINK-4256,1 52994U 22076J   23099.62630925  .00001300  00000-0  99762-4 0  9993,2 52994  53.2158 195.3728 0001484  93.7691 266.3471 15.08847939 42056,6917.856,95.437,540.748,538.695,0.0
52994.0,STARLINK-4256,PAYLOAD,2023-04-09 22:58:48,15.08839713,0.0001311,53.2155,193.8876,91.9326,268.1817,-4.554e-05,-1.013e-05,0.0,0 STARLINK-4256,1 52994U 22076J   23099.95751139 -.00001013  00000-0 -45540-4 0  9998,2 52994  53.2155 193.8876 0001311  91.9326 268.1817 15.08839713 42576,6917.881,95.438,540.653,538.839,0.0
52994.0,STARLINK-4256,PAYLOAD,2023-04-10 05:20:22,15.08834989,0.0001763,53.215,192.6977,89.8974,270.222,7.8378e-05,9.59e-06,0.0,0 STARLINK-4256,1 52994U 22076J   23100.22247811  .00000959  00000-0  78378-4 0  9999,2 52994  53.2150 192.6977 0001763  89.8974 270.2220 15.08834989 42141,6917.896,95.438,540.98,538.541,0.0
52994.0,STARLINK-4256,PAYLOAD,2023-04-11 11:32:41,15.08843964,0.0001508,53.2159,187.051,102.2452,257.8709,5.1582e-05,5.33e-06,0.0,0 STARLINK-4256,1 52994U 22076J   23101.48103157  .00000533  00000-0  51582-4 0  9998,2 52994  53.2159 187.0510 0001508 102.2452 257.8709 15.08843964 42336,6917.868,95.437,540.776,538.69,0.0
52994.0,STARLINK-4256,PAYLOAD,2023-04-12 11:23:28,15.08835698,0.0001573,53.2172,182.5912,94.5039,265.6133,5.5499e-05,5.95e-06,0.0,0 STARLINK-4256,1 52994U 22076J   23102.47463983  .00000595  00000-0  55499-4 0  9993,2 52994  53.2172 182.5912 0001573  94.5039 265.6133 15.08835698 42954,6917.894,95.438,540.847,538.67,0.0
52994.0,STARLINK-4256,PAYLOAD,2023-04-12 17:45:00,15.08845462,0.0001447,53.2154,181.3992,92.7985,267.3173,5.198e-05,5.4e-06,0.0,0 STARLINK-4256,1 52994U 22076J   23102.73959283  .00000540  00000-0  51980-4 0  9996,2 52994  53.2154 181.3992 0001447  92.7985 267.3173 15.08845462 42996,6917.864,95.437,540.73,538.728,0.0
52994.0,STARLINK-4256,PAYLOAD,2023-04-13 09:38:53,15.08832295,9.17e-05,53.2158,178.4275,80.4129,279.6966,-1.0899e-05,-4.61e-06,0.0,0 STARLINK-4256,1 52994U 22076J   23103.40200301 -.00000461  00000-0 -10899-4 0  9999,2 52994  53.2158 178.4275 0000917  80.4129 279.6966 15.08832295 42622,6917.904,95.438,540.403,539.135,0.0
52994.0,STARLINK-4256,PAYLOAD,2023-04-14 11:05:02,15.08840426,0.0001436,53.2159,173.6691,83.2352,276.8804,0.00011,1.463e-05,0.0,0 STARLINK-4256,1 52994U 22076J   23104.46183774  .00001463  00000-0  11000-3 0  9995,2 52994  53.2159 173.6691 0001436  83.2352 276.8804 15.08840426 42780,6917.879,95.438,540.737,538.751,0.0
52994.0,STARLINK-4256,PAYLOAD,2023-04-14 15:51:11,15.08852364,0.0001423,53.2155,172.7735,113.1298,246.9844,0.00015527,2.185e-05,0.0,0 STARLINK-4256,1 52994U 22076J   23104.66054670  .00002185  00000-0  15527-3 0  9999,2 52994  53.2155 172.7735 0001423 113.1298 246.9844 15.08852364 43285,6917.843,95.437,540.692,538.723,0.0
52994.0,STARLINK-4256,PAYLOAD,2023-04-15 10:55:49,15.08844722,0.0001463,53.2155,169.2042,114.151,245.9636,0.00012908,1.767e-05,0.0,0 STARLINK-4256,1 52994U 22076J   23105.45543384  .00001767  00000-0  12908-3 0  9997,2 52994  53.2155 169.2042 0001463 114.1510 245.9636 15.08844722 42937,6917.866,95.437,540.743,538.719,0.0
52994.0,STARLINK-4256,PAYLOAD,2023-04-15 15:41:58,15.0884989,0.0001478,53.2156,168.3106,116.2574,243.8571,0.00016961,2.413e-05,0.0,0 STARLINK-4256,1 52994U 22076J   23105.65414920  .00002413  00000-0  16961-3 0  9994,2 52994  53.2156 168.3106 0001478 116.2574 243.8571 15.08849890 42967,6917.85,95.437,540.738,538.693,0.0
52994.0,STARLINK-4256,PAYLOAD,2023-04-16 10:46:36,15.08839899,0.0001392,53.2141,164.7462,109.2109,250.9034,-6.0739e-05,-1.254e-05,0.0,0 STARLINK-4256,1 52994U 22076J   23106.44903702 -.00001254  00000-0 -60739-4 0  9990,2 52994  53.2141 164.7462 0001392 109.2109 250.9034 15.08839899 43082,6917.881,95.438,540.709,538.783,0.0
52994.0,STARLINK-4256,PAYLOAD,2023-04-16 15:32:45,15.08846808,0.0001473,53.2144,163.8525,121.3786,238.735,4.8385e-05,4.82e-06,0.0,0 STARLINK-4256,1 52994U 22076J   23106.64775230  .00000482  00000-0  48385-4 0  9998,2 52994  53.2144 163.8525 0001473 121.3786 238.7350 15.08846808 43118,6917.86,95.437,540.744,538.706,0.0
52994.0,STARLINK-4256,PAYLOAD,2023-04-17 12:12:47,15.0884001,0.0001332,53.2145,159.9891,99.8317,260.2826,-1.5628e-05,-5.37e-06,0.0,0 STARLINK-4256,1 52994U 22076J   23107.50887943 -.00000537  00000-0 -15628-4 0  9996,2 52994  53.2145 159.9891 0001332  99.8317 260.2826 15.08840010 43717,6917.88,95.438,540.667,538.824,0.0
52994.0,STARLINK-4256,PAYLOAD,2023-04-17 20:09:43,15.08838433,0.0001395,53.2143,158.5021,100.2436,259.8714,-1.4509e-05,-5.19e-06,0.0,0 STARLINK-4256,1 52994U 22076J   23107.84008133 -.00000519  00000-0 -14509-4 0  9996,2 52994  53.2143 158.5021 0001395 100.2436 259.8714 15.08838433 43292,6917.885,95.438,540.715,538.785,0.0
52994.0,STARLINK-4256,PAYLOAD,2023-04-18 08:52:48,15.0883725,0.0001294,53.2139,156.1232,107.8419,252.2714,4.6485e-05,4.52e-06,0.0,0 STARLINK-4256,1 52994U 22076J   23108.37000501  .00000452  00000-0  46485-4 0  9998,2 52994  53.2139 156.1232 0001294 107.8419 252.2714 15.08837250 43379,6917.889,95.438,540.649,538.859,0.0
